#cP2018 12 23  0  0  0.00000000      96 d     IGS14 FIT MIT 
## 2033      0.00000000   900.00000000 58475 0.0000000000000
+   31   G01G02G03G05G06G07G08G09G10G11G12G13G14G15G16G17G18
+        G19G20G21G22G23G24G25G26G27G28G29G30G31G32  0  0  0
+          0  0  0  0  0  0  0  0  0  0  0  0  0  0  0  0  0
+          0  0  0  0  0  0  0  0  0  0  0  0  0  0  0  0  0
+          0  0  0  0  0  0  0  0  0  0  0  0  0  0  0  0  0
++         5  4  4  5  4  4  5  4  5  4  4  5  5  5  5  4  6
++         5  5  5  4  5  4  4  5  5  5  4  5  5  3  0  0  0
++         0  0  0  0  0  0  0  0  0  0  0  0  0  0  0  0  0
++         0  0  0  0  0  0  0  0  0  0  0  0  0  0  0  0  0
++         0  0  0  0  0  0  0  0  0  0  0  0  0  0  0  0  0
%c  G cc GPS ccc cccc cccc cccc cccc ccccc ccccc ccccc ccccc
%c cc cc ccc ccc cccc cccc cccc cccc ccccc ccccc ccccc ccccc
%f  1.2500000  1.025000000  0.00000000000  0.000000000000000
%f  1.2500000  1.025000000  0.00000000000  0.000000000000000
%i    0    0    0    0      0      0      0      0         0
%i    0    0    0    0      0      0      0      0         0
/*                                                                    
/*                                                                    
/*                                                                    
/* PCV:IGS14      OL/AL:FES2004E NONE     YN ORB:CoN CLK:CoN
*  2018 12 23 12  0  0.00000000
PG01   3945.735052  14481.368566 -22084.382632   -133.404122
PG02  17974.533207 -15040.345631  12885.563534    -93.464720
PG03  11274.514546  21958.693679  -9935.867201    171.874075
PG05   7053.609010 -14325.490608  21074.970387      0.517558
PG06  25691.077307  -6754.592792    729.433086    311.050951
PG07  19034.213476   8122.355388  17142.654764     65.293959
PG08  -5676.821800  25747.897759  -2217.230126   -126.562444
PG09  10204.766283  14866.781170  19452.319246    480.138240
PG10 -20899.578707  -6706.410403 -15044.031499    147.351312
PG11   -389.560505  19206.542452 -18964.172992   -685.056490
PG12  -7490.455088 -22262.070436 -12771.015292    282.246147
PG13  12733.427155 -22977.190252   3685.390527    -80.692208
PG14 -16807.167261  12033.795035 -16274.379556    -94.243973
PG15   1152.667560 -25838.475190  -5281.764677   -335.162719
PG16  -8142.031144  12766.477897  21603.430780     -8.317131
PG17  15568.804212  -2119.426385 -20985.986749    -14.759700
PG18  -7030.427525  16719.386308 -19832.573757      8.422031
PG19  17047.034174 -11846.145794 -16922.551948   -370.964477
PG20 -22540.963521 -12828.128292  -6154.861196    520.285773
PG21 -21066.740749  -5653.978497  15899.937913   -282.290243
PG22   5233.451491  20725.308738 -15559.312169   -605.551448
PG23   4082.815581  22381.270359  13663.917048   -202.713296
PG24   1040.381138 -16298.678963 -21038.657753    -59.868726
PG25 -16535.470570 -20739.465036  -3234.563785   -695.357779
PG26 -15659.606391   5217.237886  20833.999309     75.805887
PG27 -11799.854640  22395.872255   7469.746841    -36.840466
PG28  19811.785151  10317.066627 -13684.957581    759.524337
PG29  -6619.267854 -17772.846923  18573.815915    309.324907
PG30  25444.713164    950.742827   7876.171179    -24.247504
PG31 -25346.592155   7910.656806   3655.371393     70.859292
PG32 -16318.618613   4848.548160 -20324.464087   -306.724885
*  2018 12 23 12 15  0.00000000
PG01   1545.843506  15104.856942 -21937.006274   -133.409626
PG02  19246.672193 -15226.621182  10477.493839    -93.474007
PG03  10222.892355  21216.753688 -12386.133783    171.877164
PG05   8882.087779 -12671.526323  21455.619407      0.518032
PG06  25666.992398  -6523.202067  -2149.385517    311.044542
PG07  17132.054479   8739.329026  18750.744998     65.287696
PG08  -5935.880968  25781.482023    665.156399   -126.562907
PG09   9552.932374  16928.040615  18051.117868    480.134590
PG10 -21910.937122  -7955.163184 -12859.868865    147.346191
PG11  -2036.390016  20365.758783 -17577.944443   -685.052424
PG12  -6363.515512 -21189.658434 -15025.386357    282.243502
PG13  12731.628981 -22338.067285   6477.667772    -80.691108
PG14 -16309.665340  10067.042383 -18008.420364    -94.243534
PG15   1590.037222 -26197.906760  -2519.177134   -335.161508
PG16  -9815.708820  10873.413515  21975.405002     -8.318920
PG17  14853.145988    297.312904 -21598.581671    -14.754606
PG18  -9075.448221  17247.201045 -18456.669097      8.425826
PG19  16460.683210  -9957.037850 -18651.570223   -370.960904
PG20 -22764.919054 -13413.166592  -3441.696077    520.285573
PG21 -19418.958829  -6388.364638  17716.702931   -282.284140
PG22   3626.952148  19636.006476 -17302.007992   -605.559621
PG23   3490.257466  23684.245698  11351.147933   -202.712283
PG24   3301.809118 -16934.525999 -20255.057352    -59.868177
PG25 -16038.686569 -20524.023793  -6033.567299   -695.362819
PG26 -17295.699909   3556.828921  19882.463635     75.815649
PG27 -11748.029538  21352.601470  10131.223058    -36.845946
PG28  20660.914752  11590.481796 -11303.336113    759.525487
PG29  -5879.649856 -19661.060192  16841.035368    309.317582
PG30  24486.094266   1439.288681  10417.877397    -24.252793
PG31 -25643.289935   7758.937703    838.730238     70.856658
PG32 -15813.310513   2517.814353 -21137.537624   -306.710524
*  2018 12 23 12 30  0.00000000
PG01   -783.865084  15847.405223 -21417.187051   -133.415134
PG02  20252.891608 -15369.424375   7891.647382    -93.483453
PG03   8934.764533  20356.306084 -14624.418714    171.879633
PG05  10806.060537 -11097.748953  21462.628922      0.518315
PG06  25348.936115  -6185.100785  -4991.249163    311.038153
PG07  15109.161016   9506.268480  20046.828372     65.281447
PG08  -6132.919210  25506.828982   3535.976019   -126.563944
PG09   9038.509344  18846.012557  16338.109022    480.130874
PG10 -22790.925509  -8977.722937 -10455.918277    147.341047
PG11  -3508.880889  21482.778765 -15903.083839   -685.047973
PG12  -5008.785608 -20013.873634 -17026.473950    282.240870
PG13  12667.489174 -21403.806181   9157.873717    -80.689910
PG14 -15864.391955   7902.994709 -19423.277251    -94.243182
PG15   1978.328422 -26262.851259    287.700882   -335.159957
PG16 -11602.990109   9064.043868  21962.804696     -8.321180
PG17  14258.346818   2796.134283 -21824.694093    -14.750400
PG18 -10935.769680  17817.964076 -16773.037843      8.429159
PG19  15930.237368  -7870.267309 -20067.983987   -370.958160
PG20 -22762.965869 -13812.380912   -669.867525    520.286398
PG21 -17644.254490  -7271.015411  19244.890967   -282.277809
PG22   1827.090349  18511.392286 -18742.249282   -605.567902
PG23   3007.745793  24748.609317   8841.608149   -202.711271
PG24   5432.565592 -17641.680341 -19124.773891    -59.869334
PG25 -15299.985972 -20131.364917  -8730.778866   -695.367842
PG26 -18916.478593   2064.700730  18590.001639     75.825457
PG27 -11696.634569  20019.440789  12615.011286    -36.851460
PG28  21380.399051  12603.803747  -8720.139628    759.526933
PG29  -5301.031731 -21381.240416  14818.015173    309.310025
PG30  23287.412734   2051.254480  12782.061943    -24.258112
PG31 -25645.364210   7530.139981  -1991.953134     70.854199
PG32 -15414.724266     94.913673 -21585.160312   -306.696111
*  2018 12 23 12 45  0.00000000
PG01  -2999.588001  16686.723230 -20532.731036   -133.420630
PG02  20986.235899 -15429.657375   5170.953687    -93.492693
PG03   7413.847977  19419.256657 -16612.427995    171.882349
PG05  12787.988350  -9635.231538  21096.491033      0.518529
PG06  24757.004938  -5707.283771  -7747.257654    311.031802
PG07  13009.970021  10426.337855  21008.696824     65.274775
PG08  -6306.063768  24922.231827   6345.327712   -126.564635
PG09   8646.631202  20578.777408  14342.955373    480.127237
PG10 -23499.479882  -9781.080695  -7873.483878    147.335826
PG11  -4797.058414  22519.610540 -13966.462717   -685.043704
PG12  -3432.695538 -18779.238334 -18740.726195    282.238124
PG13  12579.970053 -20180.481478  11679.449286    -80.688685
PG14 -15500.638131   5579.458994 -20493.699808    -94.242794
PG15   2351.404827 -26026.750966   3089.476385   -335.158804
PG16 -13467.533645   7375.393042  21567.204719     -8.323347
PG17  13800.078062   5326.134030 -21660.478325    -14.746052
PG18 -12584.159598  18397.239116 -14808.539697      8.432558
PG19  15486.228270  -5621.364955 -21148.384248   -370.954460
PG20 -22511.892547 -14051.586370   2113.387108    520.286624
PG21 -15785.318686  -8305.876096  20461.373079   -282.272175
PG22   -144.557303  17389.760868 -19854.307915   -605.576048
PG23   2608.076334  25545.698120   6178.063197   -202.710385
PG24   7397.579577 -18390.647856 -17666.143247    -59.869162
PG25 -14308.261552 -19599.472857 -11280.908331   -695.372858
PG26 -20478.412507    755.220545  16979.154600     75.835194
PG27 -11683.191265  18416.702859  14877.624177    -36.856863
PG28  21929.280170  13364.504305  -5982.432299    759.527791
PG29  -4866.055429 -22891.133673  12539.654439    309.302877
PG30  21881.382813   2808.217104  14928.318761    -24.263426
PG31 -25365.113773   7189.166318  -4789.261700     70.851559
PG32 -15137.303495  -2373.657828 -21659.871788   -306.681640
